NORAD_CAT_ID,OBJECT_NAME,OBJECT_TYPE,EPOCH,MEAN_MOTION,ECCENTRICITY,INCLINATION,RA_OF_ASC_NODE,ARG_OF_PERICENTER,MEAN_ANOMALY,BSTAR,MEAN_MOTION_DOT,MEAN_MOTION_DDOT,TLE_LINE0,TLE_LINE1,TLE_LINE2,SEMIMAJOR_AXIS,PERIOD,APOGEE,PERIGEE,DECAYED
53593.0,STARLINK-4671,PAYLOAD,2023-07-17 10:42:48,15.08854354,0.0001117,53.2155,261.8453,70.9333,289.178,0.00043933,6.714e-05,0.0,0 STARLINK-4671,1 53593U 22104F   23198.44639111  .00006714  00000-0  43933-3 0  9999,2 53593  53.2155 261.8453 0001117  70.9333 289.1780 15.08854354 49058,6917.837,95.437,540.474,538.929,0.0
53593.0,STARLINK-4671,PAYLOAD,2023-07-17 21:50:30,15.08849259,0.0001113,53.2148,259.7638,66.0947,294.0161,0.00039021,5.929e-05,0.0,0 STARLINK-4671,1 53593U 22104F   23198.91007251  .00005929  00000-0  39021-3 0  9995,2 53593  53.2148 259.7638 0001113  66.0947 294.0161 15.08849259 49128,6917.852,95.437,540.487,538.947,0.0
53593.0,STARLINK-4671,PAYLOAD,2023-07-18 10:33:35,15.08844549,0.0001212,53.2155,257.3855,68.5449,291.5672,0.00019812,2.867e-05,0.0,0 STARLINK-4671,1 53593U 22104F   23199.43999353  .00002867  00000-0  19812-3 0  9990,2 53593  53.2155 257.3855 0001212  68.5449 291.5672 15.08844549 49200,6917.866,95.437,540.57,538.893,0.0
53593.0,STARLINK-4671,PAYLOAD,2023-07-19 08:49:00,15.08825764,0.0001155,53.216,253.2227,74.8702,285.2418,0.00022607,3.311e-05,0.0,0 STARLINK-4671,1 53593U 22104F   23200.36736364  .00003311  00000-0  22607-3 0  9997,2 53593  53.2160 253.2227 0001155  74.8702 285.2418 15.08825764 49343,6917.924,95.438,540.588,538.99,0.0
53593.0,STARLINK-4671,PAYLOAD,2023-07-19 10:24:23,15.08836184,0.0001238,53.2171,252.9254,77.0187,283.0943,-4.58e-05,-1.017e-05,0.0,0 STARLINK-4671,1 53593U 22104F   23200.43360038 -.00001017  00000-0 -45800-4 0  9990,2 53593  53.2171 252.9254 0001238  77.0187 283.0943 15.08836184 49353,6917.892,95.438,540.613,538.901,0.0
53593.0,STARLINK-4671,PAYLOAD,2023-07-20 10:15:09,15.0884169,0.0001103,53.2162,248.463,83.1743,276.9374,7.5233e-05,9.1e-06,0.0,0 STARLINK-4671,1 53593U 22104F   23201.42719394  .00000910  00000-0  75233-4 0  9995,2 53593  53.2162 248.4630 0001103  83.1743 276.9374 15.08841690 49502,6917.875,95.437,540.503,538.977,0.0
53593.0,STARLINK-4671,PAYLOAD,2023-07-21 02:09:01,15.08835524,0.0001082,53.2159,245.4896,79.5405,280.5709,9.8846e-05,1.286e-05,0.0,0 STARLINK-4671,1 53593U 22104F   23202.08959856  .00001286  00000-0  98846-4 0  9999,2 53593  53.2159 245.4896 0001082  79.5405 280.5709 15.08835524 49602,6917.894,95.438,540.508,539.011,0.0
53593.0,STARLINK-4671,PAYLOAD,2023-07-24 01:41:22,15.08837681,0.0001219,53.216,232.1078,82.944,277.169,3.7417e-05,3.08e-06,0.0,0 STARLINK-4671,1 53593U 22104F   23205.07040116  .00000308  00000-0  37417-4 0  9992,2 53593  53.2160 232.1078 0001219  82.9440 277.1690 15.08837681 51079,6917.887,95.438,540.596,538.909,0.0
53593.0,STARLINK-4671,PAYLOAD,2023-07-25 11:04:28,15.08842543,0.0001249,53.2158,225.8638,79.6314,280.4818,5.1672e-05,5.35e-06,0.0,0 STARLINK-4671,1 53593U 22104F   23206.46143820  .00000535  00000-0  51672-4 0  9993,2 53593  53.2158 225.8638 0001249  79.6314 280.4818 15.08842543 51288,6917.873,95.437,540.602,538.874,0.0
53593.0,STARLINK-4671,PAYLOAD,2023-07-26 01:22:56,15.08838854,0.0001247,53.2155,223.1865,90.6491,269.4644,4.8625e-05,4.86e-06,0.0,0 STARLINK-4671,1 53593U 22104F   23207.05760028  .00000486  00000-0  48625-4 0  9993,2 53593  53.2155 223.1865 0001247  90.6491 269.4644 15.08838854 51379,6917.884,95.438,540.612,538.886,0.0
53593.0,STARLINK-4671,PAYLOAD,2023-07-26 07:44:29,15.0884007,0.0001223,53.2155,221.997,88.9175,271.1957,5.569e-05,5.99e-06,0.0,0 STARLINK-4671,1 53593U 22104F   23207.32255962  .00000599  00000-0  55690-4 0  9994,2 53593  53.2155 221.9970 0001223  88.9175 271.1957 15.08840070 51410,6917.88,95.438,540.591,538.899,0.0
53593.0,STARLINK-4671,PAYLOAD,2023-07-27 01:13:43,15.08841193,0.000122,53.2155,218.7257,91.0983,269.0149,5.2073e-05,5.41e-06,0.0,0 STARLINK-4671,1 53593U 22104F   23208.05119859  .00000541  00000-0  52073-4 0  9998,2 53593  53.2155 218.7257 0001220  91.0983 269.0149 15.08841193 50506,6917.877,95.437,540.586,538.898,0.0
53593.0,STARLINK-4671,PAYLOAD,2023-07-27 07:35:15,15.08843127,0.0001229,53.2154,217.5367,86.7606,273.3526,6.588e-05,7.61e-06,0.0,0 STARLINK-4671,1 53593U 22104F   23208.31615689  .00000761  00000-0  65880-4 0  9993,2 53593  53.2154 217.5367 0001229  86.7606 273.3526 15.08843127 51569,6917.871,95.437,540.586,538.886,0.0
53593.0,STARLINK-4671,PAYLOAD,2023-07-27 17:07:35,15.08838027,0.0001159,53.2149,215.7522,82.5339,277.5784,2.5135e-05,1.12e-06,0.0,0 STARLINK-4671,1 53593U 22104F   23208.71360107  .00000112  00000-0  25135-4 0  9998,2 53593  53.2149 215.7522 0001159  82.5339 277.5784 15.08838027 51627,6917.886,95.438,540.553,538.95,0.0
53593.0,STARLINK-4671,PAYLOAD,2023-07-28 01:04:31,15.08832871,0.000125,53.2156,214.2668,88.7876,271.3259,5.6345e-06,-1.98e-06,0.0,0 STARLINK-4671,1 53593U 22104F   23209.04480590 -.00000198  00000-0  56345-5 0  9997,2 53593  53.2156 214.2668 0001250  88.7876 271.3259 15.08832871 50658,6917.902,95.438,540.632,538.902,0.0
53593.0,STARLINK-4671,PAYLOAD,2023-07-28 09:01:27,15.08832968,0.000123,53.216,212.7802,88.4876,271.6257,1.6435e-06,-2.62e-06,0.0,0 STARLINK-4671,1 53593U 22104F   23209.37600708 -.00000262  00000-0  16435-5 0  9996,2 53593  53.2160 212.7802 0001230  88.4876 271.6257 15.08832968 51728,6917.902,95.438,540.618,538.916,0.0
53593.0,STARLINK-4671,PAYLOAD,2023-07-29 07:16:50,15.08839494,0.0001188,53.2159,208.6173,89.0123,271.1006,3.0814e-05,2.03e-06,0.0,0 STARLINK-4671,1 53593U 22104F   23210.30336386  .00000203  00000-0  30814-4 0  9999,2 53593  53.2159 208.6173 0001188  89.0123 271.1006 15.08839494 50845,6917.882,95.438,540.569,538.925,0.0
53593.0,STARLINK-4671,PAYLOAD,2023-07-30 08:43:01,15.08837482,0.0001193,53.2159,203.8577,91.0398,269.073,8.1566e-05,1.01e-05,0.0,0 STARLINK-4671,1 53593U 22104F   23211.36320627  .00001010  00000-0  81566-4 0  9994,2 53593  53.2159 203.8577 0001193  91.0398 269.0730 15.08837482 51007,6917.888,95.438,540.578,538.928,0.0
53593.0,STARLINK-4671,PAYLOAD,2023-07-31 18:06:07,15.08840155,0.0001278,53.216,197.6141,84.335,275.7788,6.6923e-05,7.77e-06,0.0,0 STARLINK-4671,1 53593U 22104F   23212.75424843  .00000777  00000-0  66923-4 0  9992,2 53593  53.2160 197.6141 0001278  84.3350 275.7788 15.08840155 51214,6917.88,95.438,540.629,538.861,0.0
53593.0,STARLINK-4671,PAYLOAD,2023-08-02 08:15:22,15.08838966,0.0001268,53.2165,190.4752,95.3384,264.7753,4.896e-05,4.91e-06,0.0,0 STARLINK-4671,1 53593U 22104F   23214.34400849  .00000491  00000-0  48960-4 0  9993,2 53593  53.2165 190.4752 0001268  95.3384 264.7753 15.08838966 51459,6917.884,95.438,540.626,538.871,0.0
53593.0,STARLINK-4671,PAYLOAD,2023-08-03 01:44:37,15.08828672,0.0001208,53.2171,187.2036,102.9186,257.1942,0.00012723,1.737e-05,0.0,0 STARLINK-4671,1 53593U 22104F   23215.07265367  .00001737  00000-0  12723-3 0  9999,2 53593  53.2171 187.2036 0001208 102.9186 257.1942 15.08828672 51565,6917.915,95.438,540.616,538.944,0.0
53593.0,STARLINK-4671,PAYLOAD,2023-08-03 09:41:32,15.08843197,0.0001383,53.2171,185.7167,101.4937,258.6211,3.126e-06,-2.38e-06,0.0,0 STARLINK-4671,1 53593U 22104F   23215.40384777 -.00000238  00000-0  31260-5 0  9998,2 53593  53.2171 185.7167 0001383 101.4937 258.6211 15.08843197 51615,6917.871,95.437,540.692,538.779,0.0
53593.0,STARLINK-4671,PAYLOAD,2023-08-04 03:10:47,15.08835349,0.0001414,53.2175,182.4456,103.4254,256.6896,9.524e-06,-1.36e-06,0.0,0 STARLINK-4671,1 53593U 22104F   23216.13249400 -.00000136  00000-0  95240-5 0  9997,2 53593  53.2175 182.4456 0001414 103.4254 256.6896 15.08835349 51722,6917.895,95.438,540.738,538.781,0.0
53593.0,STARLINK-4671,PAYLOAD,2023-08-05 07:47:43,15.08842983,0.0001229,53.2174,177.0928,92.6134,267.4999,7.7185e-05,9.41e-06,0.0,0 STARLINK-4671,1 53593U 22104F   23217.32481010  .00000941  00000-0  77185-4 0  9994,2 53593  53.2174 177.0928 0001229  92.6134 267.4999 15.08842983 51901,6917.871,95.437,540.586,538.886,0.0
53593.0,STARLINK-4671,PAYLOAD,2023-08-06 14:00:03,15.08832505,0.0001014,53.2167,171.4428,94.4367,265.6741,-1.8072e-05,-5.75e-06,0.0,0 STARLINK-4671,1 53593U 22104F   23218.58337881 -.00000575  00000-0 -18072-4 0  9994,2 53593  53.2167 171.4428 0001014  94.4367 265.6741 15.08832505 52091,6917.903,95.438,540.47,539.067,0.0
53593.0,STARLINK-4671,PAYLOAD,2023-08-07 13:50:50,15.08842801,0.0001043,53.2169,166.9851,99.8823,260.2287,-1.7463e-05,-5.66e-06,0.0,0 STARLINK-4671,1 53593U 22104F   23219.57697682 -.00000566  00000-0 -17463-4 0  9995,2 53593  53.2169 166.9851 0001043  99.8823 260.2287 15.08842801 52243,6917.872,95.437,540.458,539.015,0.0
53593.0,STARLINK-4671,PAYLOAD,2023-08-08 05:44:40,15.0885704,0.0001189,53.217,164.0113,122.2458,237.8649,0.00010672,1.412e-05,0.0,0 STARLINK-4671,1 53593U 22104F   23220.23936321  .00001412  00000-0  10672-3 0  9999,2 53593  53.2170 164.0113 0001189 122.2458 237.8649 15.08857040 52345,6917.828,95.436,540.516,538.871,0.0
53593.0,STARLINK-4671,PAYLOAD,2023-08-08 13:41:37,15.08842803,0.0001148,53.2172,162.5251,89.0656,271.0467,2.4117e-05,9.6e-07,0.0,0 STARLINK-4671,1 53593U 22104F   23220.57057478  .00000096  00000-0  24117-4 0  9990,2 53593  53.2172 162.5251 0001148  89.0656 271.0467 15.08842803 52392,6917.872,95.437,540.531,538.943,0.0
53593.0,STARLINK-4671,PAYLOAD,2023-08-10 00:40:06,15.08842575,0.0001061,53.2171,155.9828,99.7008,260.4104,-9.8191e-06,-4.44e-06,0.0,0 STARLINK-4671,1 53593U 22104F   23222.02785832 -.00000444  00000-0 -98191-5 0  9997,2 53593  53.2171 155.9828 0001061  99.7008 260.4104 15.08842575 52611,6917.873,95.437,540.472,539.004,0.0
53593.0,STARLINK-4671,PAYLOAD,2023-08-11 02:06:17,15.08833451,8.95e-05,53.217,151.2259,91.5388,268.5707,0.00020026,2.9e-05,0.0,0 STARLINK-4671,1 53593U 22104F   23223.08769906  .00002900  00000-0  20026-3 0  9995,2 53593  53.2170 151.2259 0000895  91.5388 268.5707 15.08833451 52770,6917.9,95.438,540.385,539.146,0.0
